GLOBALSTAR M075         
1 37192U 10054E   24016.84925812 -.00000069  00000+0  19272-3 0  9993
2 37192  51.9970 316.7216 0000421  63.8677 331.1658 12.62269450610679
GLOBALSTAR M073         
1 37193U 10054F   24016.77950257 -.00000090  00000+0  76263-4 0  9995
2 37193  52.0035 230.3544 0000981  76.9714   3.1098 12.62271686612497
GLOBALSTAR M083         
1 37739U 11033A   24016.63421310 -.00000092  00000+0  63209-4 0  9995
2 37739  51.9833 180.2337 0001120 108.4525 331.0148 12.62265090581853
GLOBALSTAR M088         
1 37740U 11033B   24016.53766372 -.00000093  00000+0  62239-4 0  9999
2 37740  51.9738  86.4545 0000808 145.3046 335.8376 12.62263939577026
GLOBALSTAR M091         
1 37741U 11033C   24016.56002116 -.00000091  00000+0  69272-4 0  9994
2 37741  52.0010  49.0169 0000607 157.3670   4.5920 12.62270219578072
GLOBALSTAR M085         
1 37742U 11033D   24016.91147421 -.00000081  00000+0  12446-3 0  9992
2 37742  51.9892 359.4443 0000262 121.0390 258.5430 12.62266525578371
GLOBALSTAR M081         
1 37743U 11033E   24016.93904067 -.00000092  00000+0  64615-4 0  9990
2 37743  51.9984   1.8272 0000162 176.7613 208.4398 12.62268421578527
GLOBALSTAR M089         
1 37744U 11033F   24016.90321146 -.00000075  00000+0  16282-3 0  9996
2 37744  51.9954 316.2616 0000588  29.2184  13.7666 12.62271387579360
